GLOBALSTAR M057         
1 25943U 99058A   25150.97675626 -.00000048  00000+0  41245-3 0  9996
2 25943  52.0008  37.0466 0002859 356.6196   3.4634 12.24820266164820
GLOBALSTAR M059         
1 25944U 99058B   25151.58723809 -.00000089  00000+0 -34639-4 0  9998
2 25944  52.0017 252.0819 0000590 209.9377 163.2898 11.99978377572056
GLOBALSTAR M056         
1 25945U 99058C   25151.76442750  .00000001  00000+0  10334-2 0  9998
2 25945  51.9963 253.9832 0001651 145.9305 350.6076 12.04779995160649
GLOBALSTAR M031         
1 25946U 99058D   25151.96226424 -.00000017  00000+0  74910-3 0  9998
2 25946  51.9930 146.7445 0001135 148.2573 230.7522 12.16034946162574
GLOBALSTAR M039         
1 25961U 99062A   25151.93301989 -.00000075  00000+0  15954-3 0  9994
2 25961  51.9857 318.2239 0001953 323.2321  36.8412 12.62327186178167
GLOBALSTAR M029         
1 25963U 99062C   25151.71529394 -.00000080  00000+0  81332-4 0  9994
2 25963  51.9773 139.7843 0002382  81.0888  90.6901 11.99897362167141
